STARLINK-3979           
1 52608U 22052L   23292.13054764  .00022181  00000+0  14068-2 0  9994
2 52608  53.2155 236.1915 0001423  89.1970 270.9185 15.08854707 79503
STARLINK-3997           
1 52609U 22052M   23291.58957855 -.00000478  00000+0 -11935-4 0  9995
2 52609  53.2170 238.5692 0001302 110.0826 250.0306 15.08842631 79056
STARLINK-3998           
1 52610U 22052N   23292.17240545  .00006988  00000+0  45662-3 0  9997
2 52610  53.2166 241.0039 0001690  80.6505 279.4678 15.08849483 79434
STARLINK-3980           
1 52611U 22052P   23292.16504432  .00001291  00000+0  99207-4 0  9992
2 52611  53.2159 241.0387 0001193  97.4227 262.6900 15.08841950 79431
STARLINK-4002           
1 52612U 22052Q   23292.12686117  .00001366  00000+0  10389-3 0  9996
2 52612  53.2151 236.2080 0001229  84.5907 275.5225 15.08843209 79502
STARLINK-3921           
1 52613U 22052R   23292.04314601  .00006523  00000+0  42743-3 0  9993
2 52613  53.2165 226.5822 0001268  94.3809 265.7328 15.08851871 79629
STARLINK-3982           
1 52614U 22052S   23292.11305942  .00003885  00000+0  26192-3 0  9998
2 52614  53.2159 226.2713 0001144 108.0705 252.0412 15.08854537 79636
STARLINK-4011           
1 52615U 22052T   23292.16136333  .00000431  00000+0  45180-4 0  9993
2 52615  53.2179 241.0560 0001676 105.1625 254.9553 15.08843147 79433
STARLINK-4015           
1 52616U 22052U   23292.10570489  .00008053  00000+0  52330-3 0  9994
2 52616  53.2165 226.3023 0001647  88.7312 271.3869 15.08851494 79635
STARLINK-3996           
1 52617U 22052V   23291.83338775  .00003340  00000+0  22781-3 0  9995
2 52617  53.2177 227.5230 0001858 111.8728 248.2462 15.08843715 79599
STARLINK-3983           
1 52618U 22052W   23292.10202713  .00010996  00000+0  70778-3 0  9993
2 52618  53.2156 226.3163 0001366  86.7651 273.3497 15.08846865 79639
STARLINK-3741           
1 52619U 22052X   23291.56474497  .00005274  00000+0  34913-3 0  9997
2 52619  53.2166 228.7225 0001437  92.4806 267.6350 15.08846671 79179
STARLINK-3975           
1 52620U 22052Y   23292.15768219  .00005723  00000+0  37726-3 0  9997
2 52620  53.2183 241.0737 0001279  93.7238 266.3901 15.08852438 79438
STARLINK-3984           
1 52621U 22052Z   23291.55738929  .00006286  00000+0  41267-3 0  9996
2 52621  53.2163 228.7646 0001966  84.8412 275.2805 15.08839237 79171
STARLINK-4008           
1 52622U 22052AA  23291.59096936  .00004367  00000+0  29233-3 0  9993
2 52622  53.2169 243.6142 0001495  89.8417 270.2747 15.08836184 78977
STARLINK-3986           
1 52623U 22052AB  23292.14986305  .00005695  00000+0  37545-3 0  9994
2 52623  53.2166 226.1032 0001525  89.4320 270.6847 15.08854242 79647
STARLINK-4009           
1 52624U 22052AC  23292.09194124  .00018885  00000+0  12009-2 0  9991
2 52624  53.2167 226.3454 0001700 100.4866 259.6317 15.08856458 79632
STARLINK-3988           
1 52625U 22052AD  23292.14618338  .00005591  00000+0  36894-3 0  9995
2 52625  53.2172 226.1197 0001767  88.5298 271.5896 15.08853995 79648
STARLINK-3990           
1 52626U 22052AE  23291.56106589  .00007680  00000+0  50014-3 0  9992
2 52626  53.2171 228.7434 0001626 119.1528 240.9627 15.08836378 79177
STARLINK-3992           
1 52627U 22052AF  23291.53898500 -.00000176  00000+0  70403-5 0  9991
2 52627  53.2166 228.8467 0001391  79.1884 280.9265 15.08843345 79183
STARLINK-4001           
1 52628U 22052AG  23291.58728788  .00007906  00000+0  51426-3 0  9996
2 52628  53.2167 243.6309 0001458  88.7259 271.3900 15.08838631 78979
STARLINK-4022           
1 52629U 22052AH  23291.53161832  .00007176  00000+0  46842-3 0  9998
2 52629  53.2168 228.8401 0001193  96.0864 264.0264 15.08844087 79176
STARLINK-3989           
1 52630U 22052AJ  23292.14250504  .00005973  00000+0  39293-3 0  9998
2 52630  53.2177 226.1392 0001584  83.4836 276.6336 15.08850176 79648
STARLINK-3794           
1 52631U 22052AK  23292.12874119  .00001428  00000+0  10780-3 0  9992
2 52631  53.2159 226.2096 0001326  97.4184 262.6959 15.08844387 79649
STARLINK-3995           
1 52632U 22052AL  23292.20506257  .00023605  00000+0  14953-2 0  9993
2 52632  53.2157 225.8578 0001322  96.1656 263.9487 15.08862751 79650
STARLINK-3994           
1 52633U 22052AM  23291.52058184  .00001669  00000+0  12291-3 0  9999
2 52633  53.2156 228.9282 0001300  99.8085 260.3054 15.08842564 79558
STARLINK-3974           
1 52634U 22052AN  23292.13147219  .00002318  00000+0  16368-3 0  9997
2 52634  53.2180 226.2162 0002031  99.9950 260.1271 15.08842676 79641
STARLINK-3978           
1 52635U 22052AP  23292.09928334  .00001054  00000+0  84334-4 0  9993
2 52635  53.2163 216.3320 0001311  94.3233 265.7909 15.08822048 79776
STARLINK-3967           
1 52636U 22052AQ  23292.19034347  .00007451  00000+0  48565-3 0  9999
2 52636  53.2186 225.9249 0001597  82.5189 277.5984 15.08849105 79657
STARLINK-3961           
1 52637U 22052AR  23292.09558375  .00024490  00000+0  15506-2 0  9991
2 52637  53.2160 216.3489 0001359  92.7026 267.4122 15.08861312 79778
STARLINK-3941           
1 52638U 22052AS  23291.85546716  .00000673  00000+0  60393-4 0  9994
2 52638  53.2167 227.4265 0001115  96.8555 263.2564 15.08837450 80034
STARLINK-3968           
1 52639U 22052AT  23292.08453886  .00006817  00000+0  44577-3 0  9997
2 52639  53.2156 216.3978 0001308  97.1043 263.0097 15.08857015 79778
STARLINK-3977           
1 52640U 22052AU  23292.16918571  .00008860  00000+0  57390-3 0  9992
2 52640  53.2165 216.0433 0001273  81.4460 278.6677 15.08851445 79781
STARLINK-3991           
1 52641U 22052AV  23291.90152649  .00003704  00000+0  25063-3 0  9994
2 52641  53.2161 217.4223 0001466  98.6411 261.4747 15.08846219 79376
STARLINK-3971           
1 52642U 22052AW  23291.49574453 -.00000046  00000+0  15207-4 0  9997
2 52642  53.2173 219.0370 0001429  89.5217 270.5939 15.08844716 79300
STARLINK-3963           
1 52643U 22052AX  23292.06709990  .00011758  00000+0  75535-3 0  9998
2 52643  53.2161 216.4463 0001533 112.7123 247.4031 15.08853551 79777
STARLINK-3985           
1 52644U 22052AY  23291.22710128  .00004590  00000+0  30622-3 0  9995
2 52644  53.2163 220.2471 0001311  88.1223 271.9920 15.08851234 79262
STARLINK-3973           
1 52645U 22052AZ  23292.07719978  .00040260  00000+0  25307-2 0  9999
2 52645  53.2152 216.5365 0001402  90.7691 269.3462 15.08877292 79770
STARLINK-3832           
1 52646U 22052BA  23292.08086623  .00012608  00000+0  80841-3 0  9995
2 52646  53.2171 216.4523 0001581  98.3124 261.8047 15.08858263 79773
STARLINK-3846           
1 52647U 22052BB  23292.06983331  .00002095  00000+0  14966-3 0  9990
2 52647  53.2155 216.5681 0001858 100.6924 259.4278 15.08850044 79772
STARLINK-3854           
1 52648U 22052BC  23291.54359023  .00005482  00000+0  36222-3 0  9990
2 52648  53.2167 218.8244 0001879  93.1716 266.9491 15.08845802 79310
STARLINK-3868           
1 52649U 22052BD  23292.11396416  .00003864  00000+0  26065-3 0  9998
2 52649  53.2169 216.1161 0002189  83.9544 276.1698 15.08853014 79780
STARLINK-3891           
1 52650U 22052BE  23291.48563519 -.00002029  00000+0 -10937-3 0  9994
2 52650  53.2145 209.1900 0002063  88.2744 271.8484 15.08841444 79824
STARLINK-4004           
1 52656U 22053A   23291.91204006  .00002922  00000+0  20154-3 0  9994
2 52656  53.2143 112.1699 0001227  79.0516 281.0614 15.08848303 79359
STARLINK-4084           
1 52657U 22053B   23291.47127574  .00003915  00000+0  27562-3 0  9993
2 52657  53.2139 114.3159 0001281  83.5088 276.6049 15.07206692 79589
STARLINK-4082           
1 52658U 22053C   23291.65076253  .00000368  00000+0  41212-4 0  9999
2 52658  53.2153 113.3433 0001417  90.6826 269.4329 15.08841479 79434
STARLINK-3960           
1 52659U 22053D   23291.65172036  .00001203  00000+0  93637-4 0  9993
2 52659  53.2134 113.3392 0002038  86.4260 273.6965 15.08844472 79421
STARLINK-4081           
1 52660U 22053E   23291.64340150  .00001346  00000+0  10264-3 0  9990
2 52660  53.2143 113.3762 0001616  89.7825 270.3353 15.08842653 79310
STARLINK-4042           
1 52661U 22053F   23291.50724381  .00001782  00000+0  13000-3 0  9993
2 52661  53.2143 113.9853 0001481  84.4357 275.6804 15.08842129 79227
STARLINK-4044           
1 52662U 22053G   23291.63236702  .00000949  00000+0  77711-4 0  9997
2 52662  53.2152 113.4248 0001283  85.0004 275.1135 15.08840196 79243
STARLINK-4037           
1 52663U 22053H   23291.49620891  .00004213  00000+0  28271-3 0  9992
2 52663  53.2169 114.0381 0001373  90.6345 269.4805 15.08826530 79221
STARLINK-4070           
1 52664U 22053J   23291.63604192  .00002897  00000+0  20003-3 0  9996
2 52664  53.2150 113.4049 0001394 111.2882 248.8259 15.08843083 79243
STARLINK-4064           
1 52665U 22053K   23291.61764634  .00000223  00000+0  32121-4 0  9999
2 52665  53.2147 113.4922 0001689  86.1927 273.9259 15.08836636 79242
STARLINK-4079           
1 52666U 22053L   23291.65439406  .00000309  00000+0  37535-4 0  9999
2 52666  53.2150 112.9451 0001699  76.5524 283.5657 15.08849131 79259
STARLINK-4076           
1 52667U 22053M   23291.61396194  .00001052  00000+0  84200-4 0  9999
2 52667  53.2145 113.5091 0001284  98.2675 261.8463 15.08839439 79242
STARLINK-4067           
1 52668U 22053N   23292.01875774  .00001578  00000+0  11719-3 0  9998
2 52668  53.2163 111.6909 0001628 110.1551 249.9617 15.08849491 79303
STARLINK-3972           
1 52669U 22053P   23292.00035517  .00002621  00000+0  18268-3 0  9997
2 52669  53.2161 111.7742 0001220  77.1508 282.9620 15.08849411 79291
STARLINK-4075           
1 52670U 22053Q   23291.62501697  .00003427  00000+0  23338-3 0  9992
2 52670  53.2153 113.5283 0001208  83.9674 276.1455 15.08830055 79249
STARLINK-4071           
1 52671U 22053R   23291.93043862  .00000918  00000+0  75726-4 0  9993
2 52671  53.2160 112.0893 0001265  83.1200 276.9936 15.08849557 79282
